OBJECT_NAME,OBJECT_ID,EPOCH,MEAN_MOTION,ECCENTRICITY,INCLINATION,RA_OF_ASC_NODE,ARG_OF_PERICENTER,MEAN_ANOMALY,EPHEMERIS_TYPE,CLASSIFICATION_TYPE,NORAD_CAT_ID,ELEMENT_SET_NO,REV_AT_EPOCH,BSTAR,MEAN_MOTION_DOT,MEAN_MOTION_DDOT
RESURS-DK 1,2006-021A,2026-06-06T20:31:39.036288,15.13170757,.00063345,69.9339,6.2973,300.4331,59.6209,0,U,29228,999,10101,.15266689E-3,.2607E-4,0
CZ-4B R/B,2006-046C,2026-06-06T20:03:58.051584,15.17707544,.00315004,97.5454,202.4753,320.4605,39.4331,0,U,29507,999,7356,.21953748E-3,.4412E-4,0
CZ-2C R/B,2007-010B,2026-06-07T01:20:58.942464,14.20273865,.00596065,98.4090,266.9033,35.4269,325.0845,0,U,31114,999,99240,.66548885E-4,.104E-5,0
COSMO-SKYMED 1,2007-023A,2026-06-07T05:49:51.487392,14.97056031,.000126,97.8860,350.0162,80.4578,279.6786,0,U,31598,999,2830,.19003312E-3,.213E-4,0
COSMOS 2428,2007-029A,2026-06-06T15:58:52.984992,14.12930557,.00072839,70.9377,16.5693,155.2577,204.8895,0,U,31792,999,97666,-.71709908E-4,-.182E-5,0
SL-16 R/B,2007-029B,2026-06-07T07:18:01.997856,14.14849443,.00022423,70.9759,344.0049,258.5019,274.6445,0,U,31793,999,97804,.17857872E-3,.297E-5,0
KORONAS-FOTON,2009-003A,2026-06-06T21:56:20.065632,15.45507879,.0010541,82.4292,182.9743,182.0296,178.0911,0,U,33504,999,95951,.24131E-3,.11636E-3,0
CZ-2C R/B,2011-030B,2026-06-06T10:43:04.964736,14.81445560,.00537251,97.8651,113.0273,62.2187,50.9381,0,U,37731,999,80323,.1912982E-3,.1481E-4,0
H-2A R/B,2012-025E,2026-06-07T04:32:06.352224,14.95660435,.0044383,98.4815,132.5108,21.3921,338.9139,0,U,38341,999,76159,.29791E-3,.3308E-4,0
SHIJIAN-16 (SJ-16),2013-057A,2026-06-07T04:26:45.847104,14.92591960,.0016975,74.9733,15.6271,253.9118,106.0202,0,U,39358,999,68485,.1543E-3,.1562E-4,0
SL-4 R/B,2014-021B,2026-06-07T00:25:20.157024,15.41737087,.009159,51.6056,260.5859,68.9631,292.1120,0,U,39679,999,67004,.30255E-3,.14688E-3,0
ALOS-2,2014-029A,2026-06-07T06:21:15.995808,14.79467932,.0001679,97.9211,255.5706,91.1698,268.9706,0,U,39766,999,65011,.16849424E-3,.1207E-4,0
YAOGAN-29,2015-069A,2026-06-07T07:51:31.311936,14.83078237,.00029828,98.0030,186.9448,69.4361,290.7172,0,U,41038,999,56916,.68482114E-4,.503E-5,0
ASTRO-H (HITOMI),2016-012A,2026-06-07T06:06:06.535584,15.10468600,.00095817,30.9975,138.3356,154.3484,205.7631,0,U,41337,999,56578,.15700399E-3,.2746E-4,0
HXMT (HUIYAN),2017-034A,2026-06-07T06:24:58.377312,15.18405128,.00301751,43.0130,238.2760,81.6094,278.8173,0,U,42758,999,49615,.25010583E-3,.5057E-4,0
SAOCOM 1A,2018-076A,2026-06-07T06:42:28.201248,14.82167889,.00015206,97.8885,345.1719,81.1496,278.9889,0,U,43641,999,41463,.96886713E-4,.719E-5,0
H-2A R/B,2018-084L,2026-06-06T19:55:34.063968,15.44753789,.0024357,98.8587,34.4596,75.2215,285.1725,0,U,43682,999,41952,.46775614E-3,.22032E-3,0
SAOCOM 1B,2020-059A,2026-06-07T05:50:17.028096,14.82162082,.00014952,97.8888,344.2307,76.9251,283.2129,0,U,46265,999,31201,.13230396E-4,.53E-6,0
CSS (TIANHE),2021-035A,2026-06-06T16:10:17.689440,15.60361832,.00091504,41.4692,25.9625,355.7318,4.3441,0,U,48274,999,29152,.3421058E-3,.28669E-3,0
COSMOS 2550,2021-056A,2026-06-07T07:23:38.187168,15.33737146,.00086972,67.1421,129.7893,266.4714,93.5446,0,U,48865,999,27720,.19088192E-3,.6075E-4,0
CZ-2C R/B,2022-058K,2026-06-05T11:12:48.006720,15.61032214,.00332157,50.1841,224.4658,218.6451,141.2145,0,U,52794,999,22381,.44812892E-3,.39184E-3,0
CZ-2C R/B,2022-132E,2026-06-07T06:41:59.936352,15.70355633,.0017024,97.2911,164.8696,114.4959,245.8081,0,U,54039,999,20439,.46193325E-3,.5687E-3,0
GSLV R/B,2022-138AN,2026-06-07T05:25:41.094912,14.97214236,.0021214,87.3804,136.3299,178.5904,181.5391,0,U,54149,999,19732,.27063151E-3,.3172E-4,0
XRISM,2023-137A,2026-06-07T00:39:06.873696,15.12376728,.0007868,31.0024,65.4097,223.3211,136.6810,0,U,57800,999,15132,.29378703E-3,.5326E-4,0
ACS3,2024-077B,2026-06-07T00:17:37.960224,13.93792585,.00479858,97.1697,79.0726,67.6807,292.9436,0,U,59588,999,10662,.34445281E-1,.46051E-3,0
CZ-8A R/B,2025-231K,2026-06-07T01:26:31.178112,14.30152094,.0116482,50.0040,82.4009,188.3488,171.5491,0,U,66004,999,3349,.41797E-4,-.47E-6,0
SZ-21 MODULE,2025-246C,2026-06-06T07:35:07.958112,15.75457395,.00071848,41.4728,14.9847,283.9983,76.0062,0,U,66515,999,3202,.36001641E-3,.56445E-3,0
